#dP2021  1 19  0  0  0.00000000      96 __u+U ITR00 FIT  IAC
## 2141 172800.00000000   900.00000000 59233 0.0000000000000
+  116   C01C02C03C04C06C07C08C09C10C11C12C13C14C16C19C20C21
+        C22C23C24C25C26C27C28C29C30C32C33C34C35C36C37E01E02
+        E03E04E05E07E08E09E11E12E13E14E15E18E19E21E24E25E26
+        E27E30E31E33E36G01G02G03G04G05G06G07G08G09G10G11G12
+        G13G14G15G16G17G18G19G20G21G22G23G24G25G26G27G28G29
+        G30G31G32J01J02J03J07R01R02R03R04R05R06R07R08R09R10
+        R11R12R13R14R15R16R17R18R19R20R21R22R23R24  0  0  0
++        13 13 13 14  8  9  8  8  8  8  8  8  8  8  8  8  8
++         8  8  8  8  8  8  8  8  8  8  8  8  8  8  8  4  4
++         4  5  4  5  4  5  5  5  4  4  4  4  5  4  4  4  5
++         4  5  5  5  5  4  4  4  4  4  4  4  4  4  3  4  4
++         4  3  4  4  4  4  4  4  4  4  4  4  4  4  4  4  4
++         4  4  4  8  8  8 13  7  6  6  6  6 13  6  6  6 13
++         8  6  7  6  6  6  6  6  6  7  6  7 13  6  0  0  0
%c M  cc GPS ccc cccc cccc cccc cccc ccccc ccccc ccccc ccccc
%c cc cc ccc ccc cccc cccc cccc cccc ccccc ccccc ccccc ccccc
%f  0.0000000  0.000000000  0.00000000000  0.000000000000000
%f  0.0000000  0.000000000  0.00000000000  0.000000000000000
%i    0    0    0    0      0      0      0      0         0
%i    0    0    0    0      0      0      0      0         0
/* INFORMATION & ANALYSIS CENTER (IAC)            RAPID DATA
/* S/V CLOCKS ARE ALIGNED TO GNSS TIME                      
/* G:C1WC2W R:C1PC2P E:C1XC5X C:C2IC6I J:C1CC2S             
/* PCV:IGS14_2134 OL/AL:FES2004  NONE     YN ORB:CoN CLK:CoN
*  2021 01 19  3 45  0.00000000
PC01 -34379.598056  24417.157120     47.010348   -738.063308
PC02   4472.178264  41923.848582    122.715759    582.871119
PC03 -14754.225523  39521.994307   -849.666278   -510.367852
PC04 -39650.753961  14328.183032   -644.065807   -434.629086
PC06 -16390.921500  21842.165796  32436.981738     16.986087
PC07 -19635.748060  37480.628429  -2926.456263   -240.939361
PC08  -4483.642597  30067.183239 -28916.131388   -911.100719
PC09   1696.942864  24987.093861  34215.025104    793.723205
PC10  -9880.500920  38736.916115 -13846.625937   -101.555196
PC11  -7275.982068  13713.526221 -23123.318174   -896.003085
PC12 -23509.354661   3635.882129 -14562.787406    739.101656
PC13   6681.246311  37749.617201 -17137.864017    103.988604
PC14 -13888.547553  22741.025114   8397.869116    -64.684290
PC16 -15339.257684  21623.547486  32823.812567   -664.585203
PC19   5633.495606 -21979.736480 -16216.429698    696.098602
PC20  19118.501158 -20303.654316   -543.326191   -909.795350
PC21 -21824.710549   6394.187513 -16168.801412   -799.024793
PC22 -11531.635163 -10941.117183 -22936.221874   -849.357040
PC23  14106.101512  21287.604769 -11241.152039   -880.380676
PC24 -10281.517125  16544.656775  19959.231836   -744.201133
PC25   3861.953702  27031.283280   5689.210149   -902.421162
PC26 -16995.184813  -2020.790595  22038.518793    960.926888
PC27  27065.839213   3003.295411   6130.037808    468.786726
PC28  21330.825310  13949.800794 -11351.558247   -120.026478
PC29  -3755.690175 -16590.348328  22119.886926    340.512815
PC30  16978.687800 -10073.173064  19733.342877    433.139069
PC32  21775.356818  -6497.979585  16206.861193   -884.595781
PC33  -5576.417559  22062.776950  16162.687080   -921.817279
PC34 -16364.451721  10446.990868 -20038.728813   -759.916297
PC35 -21568.370910 -13360.123841  11583.370515   -458.996955
PC36  -3026.868786 -27091.159781  -5969.354754   -773.829216
PC37  17035.755302   3278.225494 -21840.226981   -860.759580
PE01 -16804.734001  12261.988309  21052.286928  -1027.771980
PE02  16791.463714 -12412.886677 -20990.552062    192.078587
PE03  27791.132518 -10150.441548   -707.563426   -388.918535
PE04 -15358.215536  18361.018911  17409.688250   -691.777432
PE05  24106.732662   4144.911437  16666.201240   -311.734024
PE07  -6391.258834 -15882.766348 -24147.204008   -489.534131
PE08  14997.413248 -18394.902635 -17687.559335   6059.927478
PE09   6571.439911  15657.356561  24242.898227   5794.374433
PE11  14592.283209  22785.978502 -12017.279423   6448.683425
PE12  -4420.014349  16848.887592 -23925.946217   5399.672436
PE13 -14358.188808 -22722.720459  12405.224761    410.517766
PE14 -15638.732332  18568.695409 -21496.287750  -1299.681037
PE15   4286.300578 -16832.852591  23981.321278    833.582783
PE18  13973.376599 -12388.198777  14382.515394  -1420.500582
PE19 -28258.197599   8673.183819  -1502.385695    181.975810
PE21 -14586.503313  -9400.369308  23979.369187   -643.638330
PE24   3349.661940  26589.023201 -12547.101521   -697.171679
PE25  14527.677483   9570.831325 -23941.771423   -524.621364
PE26 -24591.944858 -14880.100015  -7068.441443   2248.898949
PE27  -3843.442943 -26296.989990  13053.029092     48.155631
PE30   9672.430770 -27298.307825  -6182.839343   3251.471207
PE31  -9096.222995  27624.116911   5486.743339   -477.488801
PE33 -20380.159741   1043.745582 -21426.055018   -464.979141
PE36  24544.913122  15235.702770   6470.345718    452.339566
PG01  19639.546199  10609.089754  14409.148241    777.721079
PG02 -13033.338447 -22316.335582   6748.362302   -567.543739
PG03  16098.091779   -822.034904  21010.681619    -60.003621
PG04  25876.709435   1918.202832   5797.561537   -173.819797
PG05  -6686.993710 -18225.758603 -18197.939421    -31.368545
PG06  -1376.961427 -20598.643851  16747.903148     -4.484046
PG07  15050.458610  -4840.302141 -21069.949412     26.945578
PG08  22526.190810   5999.903398 -12993.136724     -7.129371
PG09  24840.277818  -7482.590230  -5809.148989   -314.229465
PG10 -11573.648680  23658.281750  -1905.514420    -42.342745
PG11  23926.746092  11008.304754    640.444341    -49.048855
PG12 -14385.629537  -4156.687340  21680.650946     10.988638
PG13 -13790.921469 -13088.060566 -18732.874981     87.466431
PG14  13772.847604 -22415.343512  -3642.856528     87.549539
PG15 -23571.835662  -3968.592106 -12309.976776   -175.359484
PG16   3667.420663  19030.360290 -18175.838188   -267.177730
PG17  12407.868346 -13717.019600  19489.952042    382.036979
PG18 -12987.607166   7754.295387 -21838.128778    342.235633
PG19   4383.661637 -14463.450367  21549.646617    -50.038533
PG20 -15068.452277  16903.050642 -13719.606465    525.100341
PG21  20708.906495  15295.927250   8083.322371     88.051893
PG22  13748.364054   8593.025904  21251.387408   -695.668956
PG23 -16010.702463  17464.209155 -11990.866663    116.577708
PG24 -20901.440828 -13313.214992   9835.214316      3.491863
PG25 -17265.070667  10890.279545  16589.075593     62.671676
PG26  -2860.495594  24834.014390  -8622.082916     32.042979
PG27  11288.764356  12714.137148 -20651.025424    -58.903752
PG28  12452.446434 -23573.871832    596.994744    627.761760
PG29 -25627.065369   4685.275181  -5323.677152   -278.498359
PG30   6868.172782 -15879.670696 -20052.499436   -371.177845
PG31   2802.329599  21779.963617  14524.847247    -94.767231
PG32 -10833.760720  14929.498963  19139.841880     15.014586
PJ01 -29876.926320  29774.581119   6885.721963   -336.990976
PJ02 -28201.635434  25490.264760  23136.975797      0.866702
PJ03 -29147.477887  17271.531489 -20495.728394     -0.167741
PJ07 -25348.082487  33690.390737      3.583619      0.052995
PR01  14305.455352 -17522.227674 -11782.269762     73.692663
PR02  -4387.652230 -10143.914659 -22956.004499    463.451213
PR03 -18161.846873   2484.436283 -17673.265951     29.400203
PR04 -21434.961931  13589.840247  -2486.125057     70.563676
PR05 -12779.469064  16964.452078  14113.564894     64.984046
PR06   5736.708664   9518.112634  22945.627231    191.220005
PR07  18550.975740  -2948.633547  17314.504101    -42.205250
PR08  21475.519301 -13554.380679   2572.106918    -56.923391
PR09   6957.246950  22660.916117  -9492.469603     19.358794
PR10  11081.187641   8686.944933 -21262.231140    -65.648040
PR11   8875.571366 -11039.496124 -21203.695352      4.397626
PR12   1641.487279 -24126.963763  -8137.359024    197.831593
PR13  -6739.650807 -22841.493560   9127.877484    -49.508341
PR14 -11165.970922  -7841.243610  21558.387706     60.008765
PR15  -9059.163842  11272.148110  21026.800163    105.824098
PR16   -758.042025  24353.330947   7292.264026    -10.363212
PR17 -23495.010340  -9513.478628  -3008.431072    392.491248
PR18 -18119.683054    301.146916 -17903.674845     63.643510
PR19  -4127.742430   9523.703091 -23293.130548   -128.486841
PR20  15002.348182  14788.145040 -14402.077059   -431.452430
PR21  23477.679481   9012.277475   4201.889485   -181.410532
PR22  17437.679264   -849.349471  18633.210231    -93.252604
PR23  -3600.434684 -12592.843311  21887.609453    360.371231
PR24 -15568.181340 -14839.205492  13748.318388     28.315488
EOF
